start=new Date('2022-07-16T00:00:00.000Z').valueOf();
sats=[{"RCS_SIZE":"LARGE","TLE_LINE2":"2 48360  53.0534 225.2093 0001623  58.4525 301.6623 15.06381641 66128","CLASSIFICATION_TYPE":"U","MEAN_MOTION":"15.06381641","REF_FRAME":"TEME","EPHEMERIS_TYPE":"0","TLE_LINE1":"1 48360U 21038H   22196.79974355  .00000102  00000-0  25752-4 0  9992","MEAN_ANOMALY":"301.6623","BSTAR":"0.00002575200000","NORAD_CAT_ID":"48360","GP_ID":"208203246","OBJECT_NAME":"STARLINK-2622","RA_OF_ASC_NODE":"225.2093","APOAPSIS":"548.394","MEAN_ELEMENT_THEORY":"SGP4","COUNTRY_CODE":"US","CENTER_NAME":"EARTH","ECCENTRICITY":"0.00016230","PERIAPSIS":"546.146","OBJECT_TYPE":"PAYLOAD","DECAY_DATE":null,"FILE":"3514839","INCLINATION":"53.0534","SEMIMAJOR_AXIS":"6925.405","EPOCH":"2022-07-15T19:11:37.842720","MEAN_MOTION_DOT":"0.00000102","OBJECT_ID":"2021-038H","MEAN_MOTION_DDOT":"0.0000000000000","TIME_SYSTEM":"UTC","REV_AT_EPOCH":"6612","LAUNCH_DATE":"2021-05-04","PERIOD":"95.593","ARG_OF_PERICENTER":"58.4525","ELEMENT_SET_NO":"999","SITE":"AFETR"},{"OBJECT_NAME":"STARLINK-2591","GP_ID":"208201994","RA_OF_ASC_NODE":"225.2072","COUNTRY_CODE":"US","MEAN_ELEMENT_THEORY":"SGP4","APOAPSIS":"548.153","ECCENTRICITY":"0.00012780","CENTER_NAME":"EARTH","BSTAR":"0.00004065300000","NORAD_CAT_ID":"48361","CLASSIFICATION_TYPE":"U","REF_FRAME":"TEME","MEAN_MOTION":"15.06382251","TLE_LINE1":"1 48361U 21038J   22196.79605714  .00000324  00000-0  40653-4 0  9996","EPHEMERIS_TYPE":"0","MEAN_ANOMALY":"288.9481","RCS_SIZE":"LARGE","TLE_LINE2":"2 48361  53.0527 225.2072 0001278  71.1646 288.9481 15.06382251 66127","PERIOD":"95.593","SITE":"AFETR","ELEMENT_SET_NO":"999","ARG_OF_PERICENTER":"71.1646","OBJECT_ID":"2021-038J","MEAN_MOTION_DOT":"0.00000324","TIME_SYSTEM":"UTC","MEAN_MOTION_DDOT":"0.0000000000000","LAUNCH_DATE":"2021-05-04","REV_AT_EPOCH":"6612","EPOCH":"2022-07-15T19:06:19.336896","SEMIMAJOR_AXIS":"6925.403","OBJECT_TYPE":"PAYLOAD","PERIAPSIS":"546.383","DECAY_DATE":null,"FILE":"3514839","INCLINATION":"53.0527"},{"LAUNCH_DATE":"2021-05-04","REV_AT_EPOCH":"6606","TIME_SYSTEM":"UTC","MEAN_MOTION_DDOT":"0.0000000000000","OBJECT_ID":"2021-038K","MEAN_MOTION_DOT":"0.00000273","SITE":"AFETR","ELEMENT_SET_NO":"999","ARG_OF_PERICENTER":"55.4887","PERIOD":"95.592","INCLINATION":"53.0526","FILE":"3514546","DECAY_DATE":null,"PERIAPSIS":"546.098","OBJECT_TYPE":"PAYLOAD","EPOCH":"2022-07-15T08:45:18.097920","SEMIMAJOR_AXIS":"6925.341","NORAD_CAT_ID":"48362","BSTAR":"0.00003723200000","ECCENTRICITY":"0.00016010","CENTER_NAME":"EARTH","COUNTRY_CODE":"US","MEAN_ELEMENT_THEORY":"SGP4","APOAPSIS":"548.315","RA_OF_ASC_NODE":"227.2334","OBJECT_NAME":"STARLINK-2578","GP_ID":"208172195","TLE_LINE2":"2 48362  53.0526 227.2334 0001601  55.4887 304.6253 15.06402364 66066","RCS_SIZE":"LARGE","MEAN_ANOMALY":"304.6253","EPHEMERIS_TYPE":"0","TLE_LINE1":"1 48362U 21038K   22196.36479280  .00000273  00000-0  37232-4 0  9999","REF_FRAME":"TEME","MEAN_MOTION":"15.06402364","CLASSIFICATION_TYPE":"U"},{"SITE":"AFETR","ELEMENT_SET_NO":"999","ARG_OF_PERICENTER":"75.2864","PERIOD":"95.593","LAUNCH_DATE":"2021-05-04","REV_AT_EPOCH":"6619","TIME_SYSTEM":"UTC","MEAN_MOTION_DDOT":"0.0000000000000","OBJECT_ID":"2021-038L","MEAN_MOTION_DOT":"-0.00000502","EPOCH":"2022-07-15T18:32:29.037984","SEMIMAJOR_AXIS":"6925.388","INCLINATION":"53.0544","FILE":"3514839","DECAY_DATE":null,"PERIAPSIS":"546.171","OBJECT_TYPE":"PAYLOAD","CENTER_NAME":"EARTH","ECCENTRICITY":"0.00015630","COUNTRY_CODE":"US","MEAN_ELEMENT_THEORY":"SGP4","APOAPSIS":"548.336","RA_OF_ASC_NODE":"220.3215","OBJECT_NAME":"STARLINK-2626","GP_ID":"208202495","NORAD_CAT_ID":"48363","BSTAR":"-0.00001478200000","MEAN_ANOMALY":"284.8298","EPHEMERIS_TYPE":"0","TLE_LINE1":"1 48363U 21038L   22196.77255831 -.00000502  00000-0 -14782-4 0  9991","REF_FRAME":"TEME","MEAN_MOTION":"15.06386995","CLASSIFICATION_TYPE":"U","TLE_LINE2":"2 48363  53.0544 220.3215 0001563  75.2864 284.8298 15.06386995 66194","RCS_SIZE":"LARGE"},{"BSTAR":"0.00022485000000","NORAD_CAT_ID":"48364","GP_ID":"208202746","OBJECT_NAME":"STARLINK-2611","RA_OF_ASC_NODE":"220.4544","MEAN_ELEMENT_THEORY":"SGP4","COUNTRY_CODE":"US","APOAPSIS":"548.246","CENTER_NAME":"EARTH","ECCENTRICITY":"0.00014720","RCS_SIZE":"LARGE","TLE_LINE2":"2 48364  53.0526 220.4544 0001472  69.8560 290.2587 15.06395881 66198","CLASSIFICATION_TYPE":"U","REF_FRAME":"TEME","MEAN_MOTION":"15.06395881","EPHEMERIS_TYPE":"0","TLE_LINE1":"1 48364U 21038M   22196.78731889  .00003069  00000-0  22485-3 0  9992","MEAN_ANOMALY":"290.2587","OBJECT_ID":"2021-038M","MEAN_MOTION_DOT":"0.00003069","TIME_SYSTEM":"UTC","MEAN_MOTION_DDOT":"0.0000000000000","LAUNCH_DATE":"2021-05-04","REV_AT_EPOCH":"6619","PERIOD":"95.592","SITE":"AFETR","ARG_OF_PERICENTER":"69.8560","ELEMENT_SET_NO":"999","PERIAPSIS":"546.207","OBJECT_TYPE":"PAYLOAD","DECAY_DATE":null,"FILE":"3514839","INCLINATION":"53.0526","EPOCH":"2022-07-15T18:53:44.352096","SEMIMAJOR_AXIS":"6925.361"},{"MEAN_MOTION_DOT":"0.00000157","OBJECT_ID":"2021-038N","MEAN_MOTION_DDOT":"0.0000000000000","TIME_SYSTEM":"UTC","REV_AT_EPOCH":"6615","LAUNCH_DATE":"2021-05-04","PERIOD":"95.593","ELEMENT_SET_NO":"999","ARG_OF_PERICENTER":"83.5741","SITE":"AFETR","OBJECT_TYPE":"PAYLOAD","PERIAPSIS":"546.203","DECAY_DATE":null,"FILE":"3514546","INCLINATION":"53.0527","SEMIMAJOR_AXIS":"6925.369","EPOCH":"2022-07-15T11:33:09.049536","BSTAR":"0.00002943200000","NORAD_CAT_ID":"48365","GP_ID":"208171444","OBJECT_NAME":"STARLINK-2608","RA_OF_ASC_NODE":"221.6327","APOAPSIS":"548.266","COUNTRY_CODE":"US","MEAN_ELEMENT_THEORY":"SGP4","ECCENTRICITY":"0.00014890","CENTER_NAME":"EARTH","RCS_SIZE":"LARGE","TLE_LINE2":"2 48365  53.0527 221.6327 0001489  83.5741 276.5418 15.06393172 66151","CLASSIFICATION_TYPE":"U","MEAN_MOTION":"15.06393172","REF_FRAME":"TEME","EPHEMERIS_TYPE":"0","TLE_LINE1":"1 48365U 21038N   22196.48135474  .00000157  00000-0  29432-4 0  9993","MEAN_ANOMALY":"276.5418"},{"COUNTRY_CODE":"US","MEAN_ELEMENT_THEORY":"SGP4","APOAPSIS":"548.243","ECCENTRICITY":"0.00015200","CENTER_NAME":"EARTH","OBJECT_NAME":"STARLINK-2631","GP_ID":"208171696","RA_OF_ASC_NODE":"216.3924","BSTAR":"-0.00008788200000","NORAD_CAT_ID":"48366","EPHEMERIS_TYPE":"0","TLE_LINE1":"1 48366U 21038P   22196.53526010 -.00001591  00000-0 -87882-4 0  9998","MEAN_ANOMALY":"273.3002","CLASSIFICATION_TYPE":"U","REF_FRAME":"TEME","MEAN_MOTION":"15.06407649","RCS_SIZE":"LARGE","TLE_LINE2":"2 48366  53.0553 216.3924 0001520  86.8161 273.3002 15.06407649 66220","PERIOD":"95.592","SITE":"AFETR","ARG_OF_PERICENTER":"86.8161","ELEMENT_SET_NO":"999","LAUNCH_DATE":"2021-05-04","REV_AT_EPOCH":"6622","OBJECT_ID":"2021-038P","MEAN_MOTION_DOT":"-0.00001591","TIME_SYSTEM":"UTC","MEAN_MOTION_DDOT":"0.0000000000000","EPOCH":"2022-07-15T12:50:46.472640","SEMIMAJOR_AXIS":"6925.325","INCLINATION":"53.0553","FILE":"3514546","PERIAPSIS":"546.137","OBJECT_TYPE":"PAYLOAD","DECAY_DATE":null},{"TLE_LINE2":"2 48367  53.0531 216.1119 0001479  81.2037 278.9119 15.06401233 66239","RCS_SIZE":"LARGE","MEAN_ANOMALY":"278.9119","EPHEMERIS_TYPE":"0","TLE_LINE1":"1 48367U 21038Q   22196.59792158 -.00001814  00000-0 -10288-3 0  9996","REF_FRAME":"TEME","MEAN_MOTION":"15.06401233","CLASSIFICATION_TYPE":"U","NORAD_CAT_ID":"48367","BSTAR":"-0.00010288000000","CENTER_NAME":"EARTH","ECCENTRICITY":"0.00014790","COUNTRY_CODE":"US","MEAN_ELEMENT_THEORY":"SGP4","APOAPSIS":"548.234","RA_OF_ASC_NODE":"216.1119","OBJECT_NAME":"STARLINK-2643","GP_ID":"208202996","INCLINATION":"53.0531","FILE":"3514839","DECAY_DATE":null,"OBJECT_TYPE":"PAYLOAD","PERIAPSIS":"546.186","EPOCH":"2022-07-15T14:21:00.424512","SEMIMAJOR_AXIS":"6925.345","LAUNCH_DATE":"2021-05-04","REV_AT_EPOCH":"6623","TIME_SYSTEM":"UTC","MEAN_MOTION_DDOT":"0.0000000000000","OBJECT_ID":"2021-038Q","MEAN_MOTION_DOT":"-0.00001814","SITE":"AFETR","ELEMENT_SET_NO":"999","ARG_OF_PERICENTER":"81.2037","PERIOD":"95.592"},{"NORAD_CAT_ID":"48368","BSTAR":"-0.00009994300000","RA_OF_ASC_NODE":"215.5885","GP_ID":"208203247","OBJECT_NAME":"STARLINK-2623","CENTER_NAME":"EARTH","ECCENTRICITY":"0.00018770","COUNTRY_CODE":"US","MEAN_ELEMENT_THEORY":"SGP4","APOAPSIS":"548.534","TLE_LINE2":"2 48368  53.0532 215.5885 0001877  57.2913 302.8257 15.06393269 66264","RCS_SIZE":"LARGE","REF_FRAME":"TEME","MEAN_MOTION":"15.06393269","CLASSIFICATION_TYPE":"U","MEAN_ANOMALY":"302.8257","EPHEMERIS_TYPE":"0","TLE_LINE1":"1 48368U 21038R   22196.77488468 -.00001770  00000-0 -99943-4 0  9990","TIME_SYSTEM":"UTC","MEAN_MOTION_DDOT":"0.0000000000000","OBJECT_ID":"2021-038R","MEAN_MOTION_DOT":"-0.00001770","LAUNCH_DATE":"2021-05-04","REV_AT_EPOCH":"6626","SITE":"AFETR","ARG_OF_PERICENTER":"57.2913","ELEMENT_SET_NO":"999","PERIOD":"95.593","DECAY_DATE":null,"OBJECT_TYPE":"PAYLOAD","PERIAPSIS":"545.934","FILE":"3514839","INCLINATION":"53.0532","EPOCH":"2022-07-15T18:35:50.036352","SEMIMAJOR_AXIS":"6925.369"},{"GP_ID":"208201995","OBJECT_NAME":"STARLINK-2641","RA_OF_ASC_NODE":"215.2326","APOAPSIS":"548.379","COUNTRY_CODE":"US","MEAN_ELEMENT_THEORY":"SGP4","CENTER_NAME":"EARTH","ECCENTRICITY":"0.00017100","BSTAR":"0.00025644000000","NORAD_CAT_ID":"48369","CLASSIFICATION_TYPE":"U","MEAN_MOTION":"15.06406138","REF_FRAME":"TEME","TLE_LINE1":"1 48369U 21038S   22196.79330095  .00003541  00000-0  25644-3 0  9997","EPHEMERIS_TYPE":"0","MEAN_ANOMALY":"296.9832","RCS_SIZE":"LARGE","TLE_LINE2":"2 48369  53.0527 215.2326 0001710  63.1332 296.9832 15.06406138 66265","PERIOD":"95.592","ARG_OF_PERICENTER":"63.1332","ELEMENT_SET_NO":"999","SITE":"AFETR","MEAN_MOTION_DOT":"0.00003541","OBJECT_ID":"2021-038S","MEAN_MOTION_DDOT":"0.0000000000000","TIME_SYSTEM":"UTC","REV_AT_EPOCH":"6626","LAUNCH_DATE":"2021-05-04","SEMIMAJOR_AXIS":"6925.330","EPOCH":"2022-07-15T19:02:21.202080","OBJECT_TYPE":"PAYLOAD","PERIAPSIS":"546.011","DECAY_DATE":null,"INCLINATION":"53.0527","FILE":"3514839"}];
